SAUDISAT 1C (SO-50)     
1 27607U 02058C   26197.15063769  .00000350  00000+0  59360-4 0  9993
2 27607  64.5518  39.3689 0074499 257.0898 102.1880 14.83099305268753
SAUDISAT 2              
1 28371U 04025F   26196.94702248  .00000091  00000+0  31378-4 0  9997
2 28371  98.5521 197.6738 0024111 205.8266 154.1730 14.56698464169934
SAUDISAT 3              
1 31118U 07012B   26196.81947157  .00000095  00000+0  23504-4 0  9991
2 31118  98.1467 147.2412 0015634 132.8721 227.3802 14.71440485 31955
PISAT                   
1 41784U 16059B   26196.95644708  .00000435  00000+0  81603-4 0  9995
2 41784  97.8191 196.1748 0030459 112.4897 247.9539 14.69030442523967
FLYING LAPTOP           
1 42831U 17042G   26197.17981823  .00001731  00000+0  13845-3 0  9991
2 42831  97.4808 351.6221 0019656  29.3910 330.8416 15.01315973490808
SALSAT                  
1 46495U 20068K   26196.98743720  .00004018  00000+0  14039-3 0  9990
2 46495  97.8856 201.8148 0009305 189.9449 170.1607 15.30178734319765
