OBJECT_NAME,OBJECT_ID,EPOCH,MEAN_MOTION,ECCENTRICITY,INCLINATION,RA_OF_ASC_NODE,ARG_OF_PERICENTER,MEAN_ANOMALY,EPHEMERIS_TYPE,CLASSIFICATION_TYPE,NORAD_CAT_ID,ELEMENT_SET_NO,REV_AT_EPOCH,BSTAR,MEAN_MOTION_DOT,MEAN_MOTION_DDOT
SAUDISAT 1C (SO-50),2002-058C,2026-07-16T03:36:55.096416,14.83099305,.0074499,64.5518,39.3689,257.0898,102.1880,0,U,27607,999,26875,.5936E-4,.35E-5,0
SAUDISAT 2,2004-025F,2026-07-15T22:43:42.742272,14.56698464,.0024111,98.5521,197.6738,205.8266,154.1730,0,U,28371,999,16993,.31378E-4,.91E-6,0
SAUDISAT 3,2007-012B,2026-07-15T19:40:02.343648,14.71440485,.00156346,98.1467,147.2412,132.8721,227.3802,0,U,31118,999,3195,.23504391E-4,.95E-6,0
PISAT,2016-059B,2026-07-15T22:57:17.027712,14.69030442,.0030459,97.8191,196.1748,112.4897,247.9539,0,U,41784,999,52396,.81603E-4,.435E-5,0
FLYING LAPTOP,2017-042G,2026-07-16T04:18:56.295072,15.01315973,.0019656,97.4808,351.6221,29.3910,330.8416,0,U,42831,999,49080,.13845E-3,.1731E-4,0
SALSAT,2020-068K,2026-07-15T23:41:54.574080,15.30178734,.0009305,97.8856,201.8148,189.9449,170.1607,0,U,46495,999,31976,.14039E-3,.4018E-4,0
